GLOBAL-31               
1 63027U 25033B   26189.49720815  .00006710  00000+0  18503-3 0  9996
2 63027  58.9973 230.0333 0011320  53.6249 306.5869 15.38226260 77603
GLOBAL-32               
1 64231U 25118B   26189.31035789  .00009256  00000+0  24375-3 0  9990
2 64231  58.9936  47.0387 0015855  56.8731 303.3864 15.39162056 61496
GLOBAL-33               
1 66554U 25267A   26188.31556696  .00009227  00000+0  25437-3 0  9997
2 66554  42.0199 299.1518 0008698  27.8990 332.2315 15.37192010 35145
GLOBAL-34               
1 68098U 26043A   26189.46374227  .00007378  00000+0  23396-3 0  9997
2 68098  42.0211  97.7191 0001485  51.8099 308.2872 15.33019699 19092
