{"fetched_at":"2026-07-08T17:59:47.035Z","source":"https://celestrak.org/NORAD/elements/gp.php?NAME=GLOBAL&FORMAT=JSON","constellation":"blacksky-gen3","records":[{"OBJECT_NAME":"GLOBAL-31","OBJECT_ID":"2025-033B","EPOCH":"2026-07-08T11:55:58.784160","CLASSIFICATION_TYPE":"U","MEAN_MOTION":15.3822626,"ECCENTRICITY":0.001132,"INCLINATION":58.9973,"RA_OF_ASC_NODE":230.0333,"ARG_OF_PERICENTER":53.6249,"MEAN_ANOMALY":306.5869,"EPHEMERIS_TYPE":0,"NORAD_CAT_ID":63027,"ELEMENT_SET_NO":999,"REV_AT_EPOCH":7760,"BSTAR":0.00018503,"MEAN_MOTION_DOT":0.0000671,"MEAN_MOTION_DDOT":0},{"OBJECT_NAME":"GLOBAL-32","OBJECT_ID":"2025-118B","EPOCH":"2026-07-08T07:26:54.921696","CLASSIFICATION_TYPE":"U","MEAN_MOTION":15.39162056,"ECCENTRICITY":0.0015855,"INCLINATION":58.9936,"RA_OF_ASC_NODE":47.0387,"ARG_OF_PERICENTER":56.8731,"MEAN_ANOMALY":303.3864,"EPHEMERIS_TYPE":0,"NORAD_CAT_ID":64231,"ELEMENT_SET_NO":999,"REV_AT_EPOCH":6149,"BSTAR":0.00024375,"MEAN_MOTION_DOT":0.00009256,"MEAN_MOTION_DDOT":0},{"OBJECT_NAME":"GLOBAL-33","OBJECT_ID":"2025-267A","EPOCH":"2026-07-07T07:34:24.985344","CLASSIFICATION_TYPE":"U","MEAN_MOTION":15.3719201,"ECCENTRICITY":0.00086988,"INCLINATION":42.0199,"RA_OF_ASC_NODE":299.1518,"ARG_OF_PERICENTER":27.899,"MEAN_ANOMALY":332.2315,"EPHEMERIS_TYPE":0,"NORAD_CAT_ID":66554,"ELEMENT_SET_NO":999,"REV_AT_EPOCH":3514,"BSTAR":0.00025437449,"MEAN_MOTION_DOT":0.00009227,"MEAN_MOTION_DDOT":0},{"OBJECT_NAME":"GLOBAL-34","OBJECT_ID":"2026-043A","EPOCH":"2026-07-08T11:07:47.332128","CLASSIFICATION_TYPE":"U","MEAN_MOTION":15.33019699,"ECCENTRICITY":0.0001485,"INCLINATION":42.0211,"RA_OF_ASC_NODE":97.7191,"ARG_OF_PERICENTER":51.8099,"MEAN_ANOMALY":308.2872,"EPHEMERIS_TYPE":0,"NORAD_CAT_ID":68098,"ELEMENT_SET_NO":999,"REV_AT_EPOCH":1909,"BSTAR":0.00023396,"MEAN_MOTION_DOT":0.00007378,"MEAN_MOTION_DDOT":0}]}
